start=new Date('2023-03-19T00:00:00.000Z').valueOf();
sats=[{"RA_OF_ASC_NODE":"90.9712","ARG_OF_PERICENTER":"99.7894","CLASSIFICATION_TYPE":"U","EPOCH":"2023-03-18T18:31:12.621504","FILE":"3864479","MEAN_MOTION_DDOT":"0.0000000000000","DECAY_DATE":null,"INCLINATION":"53.0519","MEAN_MOTION":"15.06436936","ECCENTRICITY":"0.00014820","OBJECT_ID":"2021-018AN","SITE":"AFETR","OBJECT_TYPE":"PAYLOAD","MEAN_ELEMENT_THEORY":"SGP4","MEAN_ANOMALY":"260.3262","TLE_LINE1":"1 47823U 21018AN  23077.77167386  .00019511  00000-0  13238-2 0  9996","CENTER_NAME":"EARTH","GP_ID":"228402515","COUNTRY_CODE":"US","SEMIMAJOR_AXIS":"6925.235","RCS_SIZE":"LARGE","LAUNCH_DATE":"2021-03-11","PERIOD":"95.590","REF_FRAME":"TEME","ELEMENT_SET_NO":"999","BSTAR":"0.00132380000000","EPHEMERIS_TYPE":"0","MEAN_MOTION_DOT":"0.00019511","OBJECT_NAME":"STARLINK-2408","APOAPSIS":"548.127","TIME_SYSTEM":"UTC","PERIAPSIS":"546.074","TLE_LINE2":"2 47823  53.0519  90.9712 0001482  99.7894 260.3262 15.06436936112770","REV_AT_EPOCH":"11277","NORAD_CAT_ID":"47823"},{"RCS_SIZE":"LARGE","LAUNCH_DATE":"2021-03-11","ELEMENT_SET_NO":"999","BSTAR":"0.00098656000000","EPHEMERIS_TYPE":"0","PERIOD":"95.591","REF_FRAME":"TEME","MEAN_MOTION_DOT":"0.00014453","APOAPSIS":"548.192","OBJECT_NAME":"STARLINK-2409","PERIAPSIS":"546.089","TIME_SYSTEM":"UTC","REV_AT_EPOCH":"11276","NORAD_CAT_ID":"47824","TLE_LINE2":"2 47824  53.0522  91.0252 0001518  93.1495 266.9667 15.06423757112768","ARG_OF_PERICENTER":"93.1495","RA_OF_ASC_NODE":"91.0252","EPOCH":"2023-03-18T18:16:38.742528","FILE":"3864479","CLASSIFICATION_TYPE":"U","INCLINATION":"53.0522","DECAY_DATE":null,"MEAN_MOTION_DDOT":"0.0000000000000","MEAN_MOTION":"15.06423757","ECCENTRICITY":"0.00015180","SITE":"AFETR","OBJECT_TYPE":"PAYLOAD","OBJECT_ID":"2021-018AP","MEAN_ELEMENT_THEORY":"SGP4","CENTER_NAME":"EARTH","GP_ID":"228402770","COUNTRY_CODE":"US","SEMIMAJOR_AXIS":"6925.276","MEAN_ANOMALY":"266.9667","TLE_LINE1":"1 47824U 21018AP  23077.76155952  .00014453  00000-0  98656-3 0  9990"},{"RCS_SIZE":"LARGE","LAUNCH_DATE":"2021-03-11","PERIOD":"95.592","REF_FRAME":"TEME","ELEMENT_SET_NO":"999","BSTAR":"0.00051075000000","EPHEMERIS_TYPE":"0","MEAN_MOTION_DOT":"0.00007334","OBJECT_NAME":"STARLINK-2410","APOAPSIS":"548.296","TIME_SYSTEM":"UTC","PERIAPSIS":"546.123","TLE_LINE2":"2 47825  53.0528  92.1344 0001569  87.9954 272.1215 15.06401303112734","NORAD_CAT_ID":"47825","REV_AT_EPOCH":"11273","RA_OF_ASC_NODE":"92.1344","ARG_OF_PERICENTER":"87.9954","CLASSIFICATION_TYPE":"U","FILE":"3864479","EPOCH":"2023-03-18T12:21:02.188224","DECAY_DATE":null,"MEAN_MOTION_DDOT":"0.0000000000000","INCLINATION":"53.0528","MEAN_MOTION":"15.06401303","ECCENTRICITY":"0.00015690","OBJECT_ID":"2021-018AQ","SITE":"AFETR","OBJECT_TYPE":"PAYLOAD","MEAN_ELEMENT_THEORY":"SGP4","TLE_LINE1":"1 47825U 21018AQ  23077.51460866  .00007334  00000-0  51075-3 0  9991","MEAN_ANOMALY":"272.1215","GP_ID":"228401523","CENTER_NAME":"EARTH","COUNTRY_CODE":"US","SEMIMAJOR_AXIS":"6925.345"},{"MEAN_MOTION":"15.06420006","MEAN_MOTION_DDOT":"0.0000000000000","DECAY_DATE":null,"INCLINATION":"53.0517","CLASSIFICATION_TYPE":"U","EPOCH":"2023-03-18T12:15:43.648704","FILE":"3864479","RA_OF_ASC_NODE":"92.1514","ARG_OF_PERICENTER":"86.5586","MEAN_ANOMALY":"273.5570","TLE_LINE1":"1 47826U 21018AR  23077.51092186  .00015972  00000-0  10881-2 0  9994","GP_ID":"228402272","CENTER_NAME":"EARTH","COUNTRY_CODE":"US","SEMIMAJOR_AXIS":"6925.287","MEAN_ELEMENT_THEORY":"SGP4","OBJECT_ID":"2021-018AR","SITE":"AFETR","OBJECT_TYPE":"PAYLOAD","ECCENTRICITY":"0.00014580","PERIOD":"95.591","REF_FRAME":"TEME","ELEMENT_SET_NO":"999","BSTAR":"0.00108810000000","EPHEMERIS_TYPE":"0","LAUNCH_DATE":"2021-03-11","RCS_SIZE":"LARGE","TLE_LINE2":"2 47826  53.0517  92.1514 0001458  86.5586 273.5570 15.06420006112735","REV_AT_EPOCH":"11273","NORAD_CAT_ID":"47826","TIME_SYSTEM":"UTC","PERIAPSIS":"546.143","MEAN_MOTION_DOT":"0.00015972","APOAPSIS":"548.162","OBJECT_NAME":"STARLINK-2411"},{"MEAN_ELEMENT_THEORY":"SGP4","TLE_LINE1":"1 47827U 21018AS  23077.49343745  .00013462  00000-0  92056-3 0  9999","MEAN_ANOMALY":"268.8494","SEMIMAJOR_AXIS":"6925.307","GP_ID":"228403016","COUNTRY_CODE":"US","CENTER_NAME":"EARTH","ECCENTRICITY":"0.00014560","OBJECT_ID":"2021-018AS","OBJECT_TYPE":"PAYLOAD","SITE":"AFETR","DECAY_DATE":null,"MEAN_MOTION_DDOT":"0.0000000000000","INCLINATION":"53.0552","MEAN_MOTION":"15.06413461","RA_OF_ASC_NODE":"82.4692","ARG_OF_PERICENTER":"91.2662","CLASSIFICATION_TYPE":"U","FILE":"3864479","EPOCH":"2023-03-18T11:50:32.995680","TLE_LINE2":"2 47827  53.0552  82.4692 0001456  91.2662 268.8494 15.06413461112920","NORAD_CAT_ID":"47827","REV_AT_EPOCH":"11292","APOAPSIS":"548.181","OBJECT_NAME":"STARLINK-2413","MEAN_MOTION_DOT":"0.00013462","TIME_SYSTEM":"UTC","PERIAPSIS":"546.164","REF_FRAME":"TEME","PERIOD":"95.591","BSTAR":"0.00092056000000","EPHEMERIS_TYPE":"0","ELEMENT_SET_NO":"999","RCS_SIZE":"LARGE","LAUNCH_DATE":"2021-03-11"},{"ELEMENT_SET_NO":"999","EPHEMERIS_TYPE":"0","BSTAR":"0.00115930000000","PERIOD":"95.590","REF_FRAME":"TEME","LAUNCH_DATE":"2021-03-11","RCS_SIZE":"LARGE","REV_AT_EPOCH":"11263","NORAD_CAT_ID":"47828","TLE_LINE2":"2 47828  53.0521 101.0309 0001048  88.8298 271.2811 15.06432947112633","PERIAPSIS":"546.387","TIME_SYSTEM":"UTC","MEAN_MOTION_DOT":"0.00017044","APOAPSIS":"547.838","OBJECT_NAME":"STARLINK-2415","MEAN_MOTION":"15.06432947","INCLINATION":"53.0521","DECAY_DATE":null,"MEAN_MOTION_DDOT":"0.0000000000000","EPOCH":"2023-03-18T18:15:19.190592","FILE":"3864479","CLASSIFICATION_TYPE":"U","ARG_OF_PERICENTER":"88.8298","RA_OF_ASC_NODE":"101.0309","CENTER_NAME":"EARTH","GP_ID":"228403271","COUNTRY_CODE":"US","SEMIMAJOR_AXIS":"6925.248","TLE_LINE1":"1 47828U 21018AT  23077.76063878  .00017044  00000-0  11593-2 0  9992","MEAN_ANOMALY":"271.2811","MEAN_ELEMENT_THEORY":"SGP4","SITE":"AFETR","OBJECT_TYPE":"PAYLOAD","OBJECT_ID":"2021-018AT","ECCENTRICITY":"0.00010480"},{"MEAN_MOTION_DOT":"0.00014734","OBJECT_NAME":"STARLINK-2416","APOAPSIS":"547.926","TIME_SYSTEM":"UTC","PERIAPSIS":"546.368","TLE_LINE2":"2 47829  53.0522 100.9471 0001125  87.1011 273.0106 15.06421830112629","REV_AT_EPOCH":"11262","NORAD_CAT_ID":"47829","RCS_SIZE":"LARGE","LAUNCH_DATE":"2021-03-11","PERIOD":"95.591","REF_FRAME":"TEME","ELEMENT_SET_NO":"999","BSTAR":"0.00100540000000","EPHEMERIS_TYPE":"0","ECCENTRICITY":"0.00011250","OBJECT_ID":"2021-018AU","SITE":"AFETR","OBJECT_TYPE":"PAYLOAD","MEAN_ELEMENT_THEORY":"SGP4","TLE_LINE1":"1 47829U 21018AU  23077.77906599  .00014734  00000-0  10054-2 0  9994","MEAN_ANOMALY":"273.0106","GP_ID":"228402024","COUNTRY_CODE":"US","CENTER_NAME":"EARTH","SEMIMAJOR_AXIS":"6925.282","RA_OF_ASC_NODE":"100.9471","ARG_OF_PERICENTER":"87.1011","CLASSIFICATION_TYPE":"U","EPOCH":"2023-03-18T18:41:51.301536","FILE":"3864479","DECAY_DATE":null,"MEAN_MOTION_DDOT":"0.0000000000000","INCLINATION":"53.0522","MEAN_MOTION":"15.06421830"},{"REV_AT_EPOCH":"11262","NORAD_CAT_ID":"47830","TLE_LINE2":"2 47830  53.0518 100.9638 0001427  77.4789 282.6359 15.06387785112626","MEAN_MOTION_DOT":"0.00018191","APOAPSIS":"548.239","OBJECT_NAME":"STARLINK-2419","PERIAPSIS":"546.263","TIME_SYSTEM":"UTC","ELEMENT_SET_NO":"999","BSTAR":"0.00123740000000","EPHEMERIS_TYPE":"0","PERIOD":"95.593","REF_FRAME":"TEME","RCS_SIZE":"LARGE","LAUNCH_DATE":"2021-03-11","MEAN_ELEMENT_THEORY":"SGP4","GP_ID":"228401772","COUNTRY_CODE":"US","CENTER_NAME":"EARTH","SEMIMAJOR_AXIS":"6925.386","MEAN_ANOMALY":"282.6359","TLE_LINE1":"1 47830U 21018AV  23077.77536929  .00018191  00000-0  12374-2 0  9990","ECCENTRICITY":"0.00014270","SITE":"AFETR","OBJECT_TYPE":"PAYLOAD","OBJECT_ID":"2021-018AV","INCLINATION":"53.0518","DECAY_DATE":null,"MEAN_MOTION_DDOT":"0.0000000000000","MEAN_MOTION":"15.06387785","ARG_OF_PERICENTER":"77.4789","RA_OF_ASC_NODE":"100.9638","EPOCH":"2023-03-18T18:36:31.906656","FILE":"3864479","CLASSIFICATION_TYPE":"U"},{"ECCENTRICITY":"0.00013070","OBJECT_ID":"2021-018AW","SITE":"AFETR","OBJECT_TYPE":"PAYLOAD","MEAN_ELEMENT_THEORY":"SGP4","TLE_LINE1":"1 47831U 21018AW  23077.70949786  .00009824  00000-0  67728-3 0  9990","MEAN_ANOMALY":"264.7218","COUNTRY_CODE":"US","GP_ID":"228402516","CENTER_NAME":"EARTH","SEMIMAJOR_AXIS":"6925.309","RA_OF_ASC_NODE":"76.2596","ARG_OF_PERICENTER":"95.3920","CLASSIFICATION_TYPE":"U","FILE":"3864479","EPOCH":"2023-03-18T17:01:40.615104","DECAY_DATE":null,"MEAN_MOTION_DDOT":"0.0000000000000","INCLINATION":"53.0540","MEAN_MOTION":"15.06412835","MEAN_MOTION_DOT":"0.00009824","APOAPSIS":"548.079","OBJECT_NAME":"STARLINK-2420","TIME_SYSTEM":"UTC","PERIAPSIS":"546.269","TLE_LINE2":"2 47831  53.0540  76.2596 0001307  95.3920 264.7218 15.06412835113028","NORAD_CAT_ID":"47831","REV_AT_EPOCH":"11302","RCS_SIZE":"LARGE","LAUNCH_DATE":"2021-03-11","PERIOD":"95.591","REF_FRAME":"TEME","ELEMENT_SET_NO":"999","EPHEMERIS_TYPE":"0","BSTAR":"0.00067728000000"},{"OBJECT_ID":"2021-018AX","OBJECT_TYPE":"PAYLOAD","SITE":"AFETR","ECCENTRICITY":"0.00012820","MEAN_ANOMALY":"267.4002","TLE_LINE1":"1 47832U 21018AX  23077.73207023  .00013906  00000-0  95015-3 0  9991","SEMIMAJOR_AXIS":"6925.296","GP_ID":"228402771","COUNTRY_CODE":"US","CENTER_NAME":"EARTH","MEAN_ELEMENT_THEORY":"SGP4","CLASSIFICATION_TYPE":"U","EPOCH":"2023-03-18T17:34:10.867872","FILE":"3864479","RA_OF_ASC_NODE":"91.1592","ARG_OF_PERICENTER":"92.7134","MEAN_MOTION":"15.06417065","MEAN_MOTION_DDOT":"0.0000000000000","DECAY_DATE":null,"INCLINATION":"53.0519","TIME_SYSTEM":"UTC","PERIAPSIS":"546.273","OBJECT_NAME":"STARLINK-2422","APOAPSIS":"548.049","MEAN_MOTION_DOT":"0.00013906","TLE_LINE2":"2 47832  53.0519  91.1592 0001282  92.7134 267.4002 15.06417065112768","NORAD_CAT_ID":"47832","REV_AT_EPOCH":"11276","LAUNCH_DATE":"2021-03-11","RCS_SIZE":"LARGE","REF_FRAME":"TEME","PERIOD":"95.591","EPHEMERIS_TYPE":"0","BSTAR":"0.00095015000000","ELEMENT_SET_NO":"999"}];
